QIANFAN-9               
1 60387U 24140J   25300.98665025  .00000049  00000+0  56952-4 0  9999
2 60387  88.9735 304.0803 0015422 336.9030  23.1426 13.50974927 61150
QIANFAN-10              
1 60388U 24140K   25300.99084250  .00000096  00000+0  13026-3 0  9992
2 60388  88.9744 303.4225 0013212 313.2024  46.8023 13.50971704 61287
QIANFAN-11              
1 60389U 24140L   25300.95375665  .00000042  00000+0  47078-4 0  9998
2 60389  88.9671 304.0478 0013463 337.7078  22.3486 13.50972176 60939
QIANFAN-12              
1 60390U 24140M   25300.97427928  .00000059  00000+0  72542-4 0  9994
2 60390  88.9714 304.0691 0012585 346.9587  13.1237 13.50972618 61065
QIANFAN-13              
1 60391U 24140N   25300.94549296  .00000054  00000+0  64585-4 0  9998
2 60391  88.9726 304.1663 0012499 349.9157  10.1742 13.50972930 61086
QIANFAN-14              
1 60392U 24140P   25300.97008281  .00000054  00000+0  64606-4 0  9990
2 60392  88.9705 304.0711 0016153 347.6868  12.3886 13.50973102 61098
QIANFAN-15              
1 60393U 24140Q   25300.97830717  .00000058  00000+0  72074-4 0  9990
2 60393  88.9729 304.0159 0011509 335.7736  24.2872 13.50971117 61083
QIANFAN-16              
1 60394U 24140R   25300.96613576  .00000053  00000+0  64020-4 0  9999
2 60394  88.9732 304.1360 0014226 352.6978   7.3963 13.50972089 60999
